[{"OBJECT_NAME":"STARLINK-2180","OBJECT_ID":"2021-017AS","EPOCH":"2025-12-15T22:31:10.022016","MEAN_MOTION":15.0638921,"ECCENTRICITY":0.0001503,"INCLINATION":53.0542,"RA_OF_ASC_NODE":242.6033,"ARG_OF_PERICENTER":90.4981,"MEAN_ANOMALY":269.618,"EPHEMERIS_TYPE":0,"CLASSIFICATION_TYPE":"U","NORAD_CAT_ID":47762,"ELEMENT_SET_NO":999,"REV_AT_EPOCH":26491,"BSTAR":0.00016354097,"MEAN_MOTION_DOT":2.155e-5,"MEAN_MOTION_DDOT":0},{"OBJECT_NAME":"STARLINK-2185","OBJECT_ID":"2021-017AX","EPOCH":"2025-12-15T23:12:57.860640","MEAN_MOTION":15.06386608,"ECCENTRICITY":0.00013928,"INCLINATION":53.0536,"RA_OF_ASC_NODE":227.4621,"ARG_OF_PERICENTER":92.1855,"MEAN_ANOMALY":267.9293,"EPHEMERIS_TYPE":0,"CLASSIFICATION_TYPE":"U","NORAD_CAT_ID":47767,"ELEMENT_SET_NO":999,"REV_AT_EPOCH":26516,"BSTAR":6.365092e-6,"MEAN_MOTION_DOT":-1.87e-6,"MEAN_MOTION_DDOT":0},{"OBJECT_NAME":"STARLINK-2193","OBJECT_ID":"2021-017BA","EPOCH":"2025-12-15T21:24:47.973024","MEAN_MOTION":15.06396709,"ECCENTRICITY":0.00013291,"INCLINATION":53.0532,"RA_OF_ASC_NODE":222.8001,"ARG_OF_PERICENTER":82.3111,"MEAN_ANOMALY":277.8029,"EPHEMERIS_TYPE":0,"CLASSIFICATION_TYPE":"U","NORAD_CAT_ID":47770,"ELEMENT_SET_NO":999,"REV_AT_EPOCH":26519,"BSTAR":5.6746538e-5,"MEAN_MOTION_DOT":5.64e-6,"MEAN_MOTION_DDOT":0},{"OBJECT_NAME":"STARLINK-2194","OBJECT_ID":"2021-017BB","EPOCH":"2025-12-15T21:40:41.695968","MEAN_MOTION":15.06408564,"ECCENTRICITY":0.00010215,"INCLINATION":53.0531,"RA_OF_ASC_NODE":222.7496,"ARG_OF_PERICENTER":86.701,"MEAN_ANOMALY":273.4096,"EPHEMERIS_TYPE":0,"CLASSIFICATION_TYPE":"U","NORAD_CAT_ID":47771,"ELEMENT_SET_NO":999,"REV_AT_EPOCH":26520,"BSTAR":0.00041846696,"MEAN_MOTION_DOT":5.959e-5,"MEAN_MOTION_DDOT":0},{"OBJECT_NAME":"STARLINK-2195","OBJECT_ID":"2021-017BC","EPOCH":"2025-12-15T23:01:01.174368","MEAN_MOTION":15.06399975,"ECCENTRICITY":0.00015712,"INCLINATION":53.053,"RA_OF_ASC_NODE":237.4989,"ARG_OF_PERICENTER":83.1197,"MEAN_ANOMALY":276.997,"EPHEMERIS_TYPE":0,"CLASSIFICATION_TYPE":"U","NORAD_CAT_ID":47772,"ELEMENT_SET_NO":999,"REV_AT_EPOCH":26497,"BSTAR":0.00026738098,"MEAN_MOTION_DOT":3.703e-5,"MEAN_MOTION_DDOT":0},{"OBJECT_NAME":"STARLINK-2196","OBJECT_ID":"2021-017BD","EPOCH":"2025-12-15T22:55:40.773792","MEAN_MOTION":15.0639111,"ECCENTRICITY":0.00015481,"INCLINATION":53.0541,"RA_OF_ASC_NODE":237.5137,"ARG_OF_PERICENTER":89.0183,"MEAN_ANOMALY":271.0983,"EPHEMERIS_TYPE":0,"CLASSIFICATION_TYPE":"U","NORAD_CAT_ID":47773,"ELEMENT_SET_NO":999,"REV_AT_EPOCH":26496,"BSTAR":-0.00024505937,"MEAN_MOTION_DOT":-3.929e-5,"MEAN_MOTION_DDOT":0},{"OBJECT_NAME":"STARLINK-2209","OBJECT_ID":"2021-017BG","EPOCH":"2025-12-15T22:09:16.221888","MEAN_MOTION":15.06395388,"ECCENTRICITY":0.00014678,"INCLINATION":53.0535,"RA_OF_ASC_NODE":227.6597,"ARG_OF_PERICENTER":88.2045,"MEAN_ANOMALY":271.9112,"EPHEMERIS_TYPE":0,"CLASSIFICATION_TYPE":"U","NORAD_CAT_ID":47776,"ELEMENT_SET_NO":999,"REV_AT_EPOCH":26512,"BSTAR":0.00014701032,"MEAN_MOTION_DOT":1.909e-5,"MEAN_MOTION_DDOT":0},{"OBJECT_NAME":"STARLINK-2211","OBJECT_ID":"2021-017BJ","EPOCH":"2025-12-15T23:02:20.469696","MEAN_MOTION":15.06396588,"ECCENTRICITY":0.00014488,"INCLINATION":53.0529,"RA_OF_ASC_NODE":227.4923,"ARG_OF_PERICENTER":83.385,"MEAN_ANOMALY":276.7303,"EPHEMERIS_TYPE":0,"CLASSIFICATION_TYPE":"U","NORAD_CAT_ID":47778,"ELEMENT_SET_NO":999,"REV_AT_EPOCH":26512,"BSTAR":0.00010129517,"MEAN_MOTION_DOT":1.227e-5,"MEAN_MOTION_DDOT":0},{"OBJECT_NAME":"STARLINK-2213","OBJECT_ID":"2021-017BL","EPOCH":"2025-12-15T22:03:56.458944","MEAN_MOTION":15.06400481,"ECCENTRICITY":0.00013273,"INCLINATION":53.0533,"RA_OF_ASC_NODE":227.6785,"ARG_OF_PERICENTER":82.7683,"MEAN_ANOMALY":277.3457,"EPHEMERIS_TYPE":0,"CLASSIFICATION_TYPE":"U","NORAD_CAT_ID":47780,"ELEMENT_SET_NO":999,"REV_AT_EPOCH":26515,"BSTAR":0.00033345985,"MEAN_MOTION_DOT":4.689e-5,"MEAN_MOTION_DDOT":0},{"OBJECT_NAME":"STARLINK-2257","OBJECT_ID":"2021-018A","EPOCH":"2025-12-15T12:09:29.192832","MEAN_MOTION":15.06381665,"ECCENTRICITY":0.0001249,"INCLINATION":53.0538,"RA_OF_ASC_NODE":269.5299,"ARG_OF_PERICENTER":107.1304,"MEAN_ANOMALY":252.9822,"EPHEMERIS_TYPE":0,"CLASSIFICATION_TYPE":"U","NORAD_CAT_ID":47787,"ELEMENT_SET_NO":999,"REV_AT_EPOCH":26390,"BSTAR":-7.5835088e-5,"MEAN_MOTION_DOT":-1.41e-5,"MEAN_MOTION_DDOT":0},{"OBJECT_NAME":"STARLINK-2314","OBJECT_ID":"2021-018B","EPOCH":"2025-12-15T21:59:17.865600","MEAN_MOTION":15.06407924,"ECCENTRICITY":0.00016303,"INCLINATION":53.0538,"RA_OF_ASC_NODE":242.693,"ARG_OF_PERICENTER":73.8393,"MEAN_ANOMALY":286.2775,"EPHEMERIS_TYPE":0,"CLASSIFICATION_TYPE":"U","NORAD_CAT_ID":47788,"ELEMENT_SET_NO":999,"REV_AT_EPOCH":26433,"BSTAR":0.00029222475,"MEAN_MOTION_DOT":4.075e-5,"MEAN_MOTION_DDOT":0},{"OBJECT_NAME":"STARLINK-2315","OBJECT_ID":"2021-018C","EPOCH":"2025-12-15T21:34:46.369056","MEAN_MOTION":15.06388835,"ECCENTRICITY":0.0001343,"INCLINATION":53.0538,"RA_OF_ASC_NODE":247.7665,"ARG_OF_PERICENTER":92.4175,"MEAN_ANOMALY":267.6967,"EPHEMERIS_TYPE":0,"CLASSIFICATION_TYPE":"U","NORAD_CAT_ID":47789,"ELEMENT_SET_NO":999,"REV_AT_EPOCH":26425,"BSTAR":0.00037232339,"MEAN_MOTION_DOT":5.267e-5,"MEAN_MOTION_DDOT":0},{"OBJECT_NAME":"STARLINK-2319","OBJECT_ID":"2021-018D","EPOCH":"2025-12-15T22:34:28.132896","MEAN_MOTION":15.06397829,"ECCENTRICITY":0.00015403,"INCLINATION":53.0543,"RA_OF_ASC_NODE":237.5846,"ARG_OF_PERICENTER":94.0036,"MEAN_ANOMALY":266.113,"EPHEMERIS_TYPE":0,"CLASSIFICATION_TYPE":"U","NORAD_CAT_ID":47790,"ELEMENT_SET_NO":999,"REV_AT_EPOCH":26440,"BSTAR":7.1025508e-5,"MEAN_MOTION_DOT":7.76e-6,"MEAN_MOTION_DDOT":0},{"OBJECT_NAME":"STARLINK-2322","OBJECT_ID":"2021-018E","EPOCH":"2025-12-15T03:55:51.956256","MEAN_MOTION":15.06378802,"ECCENTRICITY":0.00014032,"INCLINATION":53.0544,"RA_OF_ASC_NODE":271.0689,"ARG_OF_PERICENTER":91.534,"MEAN_ANOMALY":268.581,"EPHEMERIS_TYPE":0,"CLASSIFICATION_TYPE":"U","NORAD_CAT_ID":47791,"ELEMENT_SET_NO":999,"REV_AT_EPOCH":26386,"BSTAR":-0.00020512376,"MEAN_MOTION_DOT":-3.334e-5,"MEAN_MOTION_DDOT":0},{"OBJECT_NAME":"STARLINK-2334","OBJECT_ID":"2021-018F","EPOCH":"2025-12-15T21:45:23.197536","MEAN_MOTION":15.06392184,"ECCENTRICITY":0.00015955,"INCLINATION":53.055,"RA_OF_ASC_NODE":247.7357,"ARG_OF_PERICENTER":91.4407,"MEAN_ANOMALY":268.6765,"EPHEMERIS_TYPE":0,"CLASSIFICATION_TYPE":"U","NORAD_CAT_ID":47792,"ELEMENT_SET_NO":999,"REV_AT_EPOCH":26425,"BSTAR":0.00013247382,"MEAN_MOTION_DOT":1.692e-5,"MEAN_MOTION_DDOT":0},{"OBJECT_NAME":"STARLINK-2338","OBJECT_ID":"2021-018G","EPOCH":"2025-12-15T22:06:36.969408","MEAN_MOTION":15.06387973,"ECCENTRICITY":0.00016175,"INCLINATION":53.0548,"RA_OF_ASC_NODE":247.6702,"ARG_OF_PERICENTER":82.7173,"MEAN_ANOMALY":277.3999,"EPHEMERIS_TYPE":0,"CLASSIFICATION_TYPE":"U","NORAD_CAT_ID":47793,"ELEMENT_SET_NO":999,"REV_AT_EPOCH":26424,"BSTAR":6.8570311e-5,"MEAN_MOTION_DOT":7.4e-6,"MEAN_MOTION_DDOT":0}]
