STARLINK-2180           
1 47762U 21017AS  25349.93831044  .00002155  00000+0  16354-3 0  9996
2 47762  53.0542 242.6033 0001503  90.4981 269.6180 15.06389210264916
STARLINK-2185           
1 47767U 21017AX  25349.96733635 -.00000187  00000+0  63651-5 0  9999
2 47767  53.0536 227.4621 0001392  92.1855 267.9293 15.06386608265165
STARLINK-2193           
1 47770U 21017BA  25349.89222191  .00000564  00000+0  56747-4 0  9990
2 47770  53.0532 222.8001 0001329  82.3111 277.8029 15.06396709265195
STARLINK-2194           
1 47771U 21017BB  25349.90326037  .00005959  00000+0  41847-3 0  9994
2 47771  53.0531 222.7496 0001021  86.7010 273.4096 15.06408564265208
STARLINK-2195           
1 47772U 21017BC  25349.95904137  .00003703  00000+0  26738-3 0  9990
2 47772  53.0530 237.4989 0001571  83.1197 276.9970 15.06399975264972
STARLINK-2196           
1 47773U 21017BD  25349.95533303 -.00003929  00000+0 -24506-3 0  9997
2 47773  53.0541 237.5137 0001548  89.0183 271.0983 15.06391110264967
STARLINK-2209           
1 47776U 21017BG  25349.92310442  .00001909  00000+0  14701-3 0  9994
2 47776  53.0535 227.6597 0001467  88.2045 271.9112 15.06395388265124
STARLINK-2211           
1 47778U 21017BJ  25349.95995914  .00001227  00000+0  10130-3 0  9997
2 47778  53.0529 227.4923 0001448  83.3850 276.7303 15.06396588265127
STARLINK-2213           
1 47780U 21017BL  25349.91940346  .00004689  00000+0  33346-3 0  9994
2 47780  53.0533 227.6785 0001327  82.7683 277.3457 15.06400481265154
STARLINK-2257           
1 47787U 21018A   25349.50658788 -.00001410  00000+0 -75835-4 0  9994
2 47787  53.0538 269.5299 0001249 107.1304 252.9822 15.06381665263904
STARLINK-2314           
1 47788U 21018B   25349.91617900  .00004075  00000+0  29222-3 0  9997
2 47788  53.0538 242.6930 0001630  73.8393 286.2775 15.06407924264332
STARLINK-2315           
1 47789U 21018C   25349.89914779  .00005267  00000+0  37232-3 0  9993
2 47789  53.0538 247.7665 0001343  92.4175 267.6967 15.06388835264256
STARLINK-2319           
1 47790U 21018D   25349.94060339  .00000776  00000+0  71026-4 0  9995
2 47790  53.0543 237.5846 0001540  94.0036 266.1130 15.06397829264401
STARLINK-2322           
1 47791U 21018E   25349.16379579 -.00003334  00000+0 -20512-3 0  9997
2 47791  53.0544 271.0689 0001403  91.5340 268.5810 15.06378802263869
STARLINK-2334           
1 47792U 21018F   25349.90651849  .00001692  00000+0  13247-3 0  9993
2 47792  53.0550 247.7357 0001595  91.4407 268.6765 15.06392184264257
STARLINK-2338           
1 47793U 21018G   25349.92126122  .00000740  00000+0  68570-4 0  9990
2 47793  53.0548 247.6702 0001617  82.7173 277.3999 15.06387973264241
